[{"OBJECT_NAME":"CENTAURI-8","OBJECT_ID":"2025-009DK","EPOCH":"2026-03-09T17:25:58.526112","MEAN_MOTION":14.9722833,"ECCENTRICITY":0.00030201,"INCLINATION":97.7096,"RA_OF_ASC_NODE":150.1876,"ARG_OF_PERICENTER":109.5881,"MEAN_ANOMALY":250.5667,"EPHEMERIS_TYPE":0,"CLASSIFICATION_TYPE":"U","NORAD_CAT_ID":62714,"ELEMENT_SET_NO":999,"REV_AT_EPOCH":6259,"BSTAR":0.00038891127,"MEAN_MOTION_DOT":4.445e-5,"MEAN_MOTION_DDOT":0},{"OBJECT_NAME":"STARLINK-35715","OBJECT_ID":"2025-280W","EPOCH":"2026-03-09T21:33:23.567616","MEAN_MOTION":14.98331958,"ECCENTRICITY":0.00024315,"INCLINATION":70.0025,"RA_OF_ASC_NODE":334.0679,"ARG_OF_PERICENTER":264.7252,"MEAN_ANOMALY":95.3629,"EPHEMERIS_TYPE":0,"CLASSIFICATION_TYPE":"U","NORAD_CAT_ID":66841,"ELEMENT_SET_NO":999,"REV_AT_EPOCH":1610,"BSTAR":0.00033987855,"MEAN_MOTION_DOT":3.965e-5,"MEAN_MOTION_DDOT":0}]
